SPACEBEE-72             
1 48634U 21006FA  21245.80425986  .00004229  00000-0  23002-3 0  9997
2 48634  97.2514 302.0543 0016751 177.5046 182.6274 15.14863141 33765
SPACEBEE-73             
1 48635U 21006FB  21245.41120642  .00003604  00000-0  19678-3 0  9996
2 48635  97.2514 301.6722 0016919 178.9762 181.1508 15.14815734 33709
SPACEBEE-74             
1 48636U 21006FC  21245.81263467  .00003958  00000-0  21618-3 0  9993
2 48636  97.2514 302.0446 0017191 177.8364 182.2946 15.14740258 33769
SPACEBEE-75             
1 48637U 21006FD  21245.81800684  .00003966  00000-0  21706-3 0  9999
2 48637  97.2515 302.0381 0017486 177.9304 182.2004 15.14663604 33765
STARLINK-2758           
1 48638U 21044A   21245.91668981 -.00025128  00000-0 -16739-2 0  9990
2 48638  53.0536 318.2325 0000889  86.9980 156.1756 15.06402780  3560
STARLINK-2739           
1 48639U 21044B   21245.91668981 -.00068610  00000-0 -46285-2 0  9993
2 48639  53.0539 318.2363 0000850 105.1330 218.2506 15.06426935  3591
STARLINK-2736           
1 48640U 21044C   21245.91668981 -.00050442  00000-0 -33906-2 0  9995
2 48640  53.0545 318.2318 0000743 110.8644  32.5091 15.06411772  3603
STARLINK-2754           
1 48641U 21044D   21245.73043883  .00002626  00000-0  19509-3 0  9997
2 48641  53.0563 324.0741 0001098 115.1150 244.9953 15.06399490 15176
STARLINK-2646           
1 48642U 21044E   21245.94326381  .00000815  00000-0  73611-4 0  9991
2 48642  53.0555 323.1145 0000844 111.2126 248.8953 15.06401735 16040
STARLINK-2704           
1 48643U 21044F   21245.72677204  .00001209  00000-0  10003-3 0  9994
2 48643  53.0558 324.0895 0000822 129.1330 230.9733 15.06386551 15176
STARLINK-2695           
1 48644U 21044G   21245.92209968  .00001342  00000-0  10897-3 0  9994
2 48644  53.0550 323.2091 0001002 123.4820 236.6265 15.06401468 16045
STARLINK-2733           
1 48645U 21044H   21245.91841652  .00000460  00000-0  49761-4 0  9999
2 48645  53.0547 323.2275 0000919 127.9426 232.1647 15.06395652 16102
STARLINK-2732           
1 48646U 21044J   21245.58300193  .00001231  00000-0  10155-3 0  9994
2 48646  53.0556 324.7343 0000767 135.4456 224.6595 15.06394082 15151
STARLINK-2691           
1 48647U 21044K   21245.71201524  .00003949  00000-0  28382-3 0  9997
2 48647  53.0564 324.1592 0001013 146.6971 213.4082 15.06403468 15170
STARLINK-2521           
1 48648U 21044L   21245.71106726  .00001221  00000-0  10085-3 0  9998
2 48648  53.0563 324.1599 0000992 128.2966 231.8112 15.06395364 15175
STARLINK-2673           
1 48649U 21044M   21245.70832560  .00001209  00000-0  10005-3 0  9998
2 48649  53.0513 324.2103 0000955 128.0379 232.0696 15.06394092 15164
STARLINK-2672           
1 48650U 21044N   21245.70463724  .00001207  00000-0  99879-4 0  9997
2 48650  53.0531 324.1955 0000891 158.5956 201.5070 15.06396772 15162
STARLINK-2731           
1 48651U 21044P   21245.70094428 -.00000650  00000-0 -24788-4 0  9999
2 48651  53.0551 324.2082 0001018 149.6488 210.4560 15.06389997 15164
STARLINK-2727           
1 48652U 21044Q   21245.49821976  .00002599  00000-0  19328-3 0  9997
2 48652  53.0544 325.1125 0000914 138.5792 221.5266 15.06401154 15979
STARLINK-2720           
1 48653U 21044R   21246.02533440  .00000829  00000-0  74540-4 0  9996
2 48653  53.0560 322.7496 0000844 142.6986 217.4062 15.06389158 16052
STARLINK-2651           
1 48654U 21044S   21245.62355830  .00000711  00000-0  66628-4 0  9995
2 48654  53.0571 324.5580 0001018 132.2973 227.8102 15.06399546 15156
STARLINK-2657           
1 48655U 21044T   21245.61986794  .00005308  00000-0  37492-3 0  9997
2 48655  53.0558 324.5715 0001158 141.0548 219.0525 15.06407381 15152
STARLINK-2701           
1 48656U 21044U   21245.48348859  .00001549  00000-0  12286-3 0  9994
2 48656  53.0561 325.1813 0000815 117.8474 242.2597 15.06399431 15132
STARLINK-2734           
1 48657U 21044V   21245.94422598  .00000852  00000-0  76103-4 0  9994
2 48657  53.0561 323.1134 0000685 131.0615 229.0433 15.06396920 16107
STARLINK-2647           
1 48658U 21044W   21245.94054605  .00003017  00000-0  22131-3 0  9992
2 48658  53.0574 323.1363 0001148 106.4218 253.6897 15.06402333 16109
STARLINK-2717           
1 48659U 21044X   21245.53878266  .00001228  00000-0  10133-3 0  9996
2 48659  53.0567 324.9357 0000731 129.9766 230.1288 15.06389741 15985
STARLINK-2688           
1 48660U 21044Y   21245.73412406  .00001050  00000-0  89359-4 0  9990
2 48660  53.0563 324.0573 0000849 118.2501 241.8573 15.06395053 15172
STARLINK-2708           
1 48661U 21044Z   21245.91668981 -.00019632  00000-0 -13023-2 0  9992
2 48661  53.0548 313.2340 0001013  97.5413 168.1775 15.06412728  3590
STARLINK-2726           
1 48662U 21044AA  21245.91668981 -.00019392  00000-0 -12867-2 0  9991
2 48662  53.0544 313.2352 0001133  97.3884 188.3493 15.06395670  3590
STARLINK-2667           
1 48663U 21044AB  21245.91668981 -.00019530  00000-0 -12955-2 0  9994
2 48663  53.0531 313.2314 0000907  97.5786 208.1206 15.06409431  3590
STARLINK-2709           
1 48664U 21044AC  21245.91668981 -.00019218  00000-0 -12745-2 0  9995
2 48664  53.0538 313.2345 0001012  89.9793 235.7119 15.06407468  3590
STARLINK-2653           
1 48665U 21044AD  21245.91668981 -.00019520  00000-0 -12950-2 0  9990
2 48665  53.0542 313.2336 0001001  87.9546 162.7596 15.06404470  3596
STARLINK-2666           
1 48666U 21044AE  21245.91668981 -.00016804  00000-0 -11120-2 0  9991
2 48666  53.0523 313.2400 0001067  74.6441 356.0581 15.06397150  3607
STARLINK-2735           
1 48667U 21044AF  21245.91668981 -.00017822  00000-0 -11805-2 0  9993
2 48667  53.0543 313.2305 0000947  74.9752 270.6460 15.06403429  3590
STARLINK-2738           
1 48668U 21044AG  21245.91668981 -.00018293  00000-0 -12122-2 0  9990
2 48668  53.0529 313.2331 0001055  90.0736 275.6151 15.06405156  3609
STARLINK-2707           
1 48669U 21044AH  21246.16668981  .00025861  00000-0  17491-2 0  9990
2 48669  53.0470 312.1655 0001086  85.4097 216.7612 15.06390529 16210
STARLINK-2763           
1 48670U 21044AJ  21245.91668981 -.00017476  00000-0 -11572-2 0  9993
2 48670  53.0471 313.2880 0000968  85.0385 320.6121 15.06400759  3560
STARLINK-2745           
1 48671U 21044AK  21245.91668981 -.00016988  00000-0 -11245-2 0  9998
2 48671  53.0513 313.2376 0001331  93.6866 332.0404 15.06392582  3602
STARLINK-2705           
1 48672U 21044AL  21245.91668981 -.00016579  00000-0 -10966-2 0  9994
2 48672  53.0530 313.2337 0001144  86.4180 359.2674 15.06404392  3603
STARLINK-2711           
1 48673U 21044AM  21245.91668981 -.00016484  00000-0 -10902-2 0  9990
2 48673  53.0548 313.2358 0001189  95.2512  10.4206 15.06404388  3604
STARLINK-2712           
1 48674U 21044AN  21245.91668981 -.00016555  00000-0 -10953-2 0  9996
2 48674  53.0550 313.2355 0000930  90.8554  34.8788 15.06392697  3609
STARLINK-2737           
1 48675U 21044AP  21246.16668981  .00024620  00000-0  16661-2 0  9997
2 48675  53.0541 312.1100 0001072 102.5485 319.6744 15.06396842 16211
STARLINK-2746           
1 48676U 21044AQ  21245.91668981 -.00017323  00000-0 -11470-2 0  9997
2 48676  53.0537 313.2316 0000849  84.8143  80.9377 15.06397362  3597
STARLINK-2719           
1 48677U 21044AR  21246.16668981  .00022987  00000-0  15571-2 0  9992
2 48677  53.0536 312.1086 0000787 104.3094 357.9239 15.06399857 16211
STARLINK-2615           
1 48678U 21044AS  21246.16668981  .00022123  00000-0  15002-2 0  9994
2 48678  53.0544 312.1106 0001062 101.4507  20.7895 15.06381513 16211
STARLINK-2648           
1 48679U 21044AT  21245.91668981 -.00019150  00000-0 -12702-2 0  9999
2 48679  53.0545 313.2332 0000909 103.8586 121.8940 15.06399211  3593
STARLINK-2649           
1 48680U 21044AU  21246.16668981  .00021029  00000-0  14268-2 0  9994
2 48680  53.0538 312.1089 0001445  92.9023  69.3215 15.06390648 16280
STARLINK-2725           
1 48681U 21044AV  21246.16668981  .00025411  00000-0  18489-3 0  9994
2 48681  53.0459 290.7507 0004107   6.1173  44.7969 15.73194352 16573
STARLINK-2743           
1 48682U 21044AW  21246.16668981  .00027358  00000-0  19842-3 0  9991
2 48682  53.0458 290.7478 0004112   5.9070  45.5937 15.73223634 16513
STARLINK-2756           
1 48683U 21044AX  21245.91668981  .00049334  00000-0  35398-3 0  9996
2 48683  53.0457 291.9891 0004127   6.1643  69.2578 15.73180378  3708
STARLINK-2741           
1 48684U 21044AY  21245.91668981 -.01099371  00000-0 -15636-1 0  9997
2 48684  53.0464 292.3323 0001321  56.6248 213.2279 15.58423027  3709
STARLINK-2751           
1 48685U 21044AZ  21245.91668981  .00047472  00000-0  34074-3 0  9999
2 48685  53.0459 291.9894 0004207   1.6595  75.0566 15.73188151  3709
STARLINK-2629           
1 48686U 21044BA  21246.16668981  .00026674  00000-0  19359-3 0  9998
2 48686  53.0457 290.7421 0004006   4.7181  49.2555 15.73224108 16576
STARLINK-2627           
1 48687U 21044BB  21245.91668981  .00049274  00000-0  35345-3 0  9995
2 48687  53.0454 291.9815 0004162   2.4542  75.4649 15.73187093  3700
STARLINK-2742           
1 48688U 21044BC  21245.91668981  .00048084  00000-0  34510-3 0  9997
2 48688  53.0454 291.9798 0004311 359.4775  79.1371 15.73184228  3700
STARLINK-2617           
1 48689U 21044BD  21246.16668981 -.00014486  00000-0 -98668-4 0  9992
2 48689  53.0456 290.7383 0004153   8.7779  47.1585 15.73245597 16514
STARLINK-2740           
1 48690U 21044BE  21246.16668981  .00030800  00000-0  22264-3 0  9998
2 48690  53.0461 290.7416 0003980   7.9518  48.6102 15.73234544 16575
STARLINK-2750           
1 48691U 21044BF  21245.91668981  .00048470  00000-0  34785-3 0  9994
2 48691  53.0456 291.9781 0004131 359.9594  80.5508 15.73182961  3702
STARLINK-2752           
1 48692U 21044BG  21245.91668981  .00047333  00000-0  33947-3 0  9991
2 48692  53.0455 291.9761 0004206   1.4523  79.7067 15.73208161  3705
